[{"OBJECT_NAME":"TIANQI-16","OBJECT_ID":"2025-105A","EPOCH":"2026-03-09T12:21:56.157984","MEAN_MOTION":13.99115329,"ECCENTRICITY":0.0012645,"INCLINATION":44.9833,"RA_OF_ASC_NODE":105.8163,"ARG_OF_PERICENTER":266.1357,"MEAN_ANOMALY":93.803,"EPHEMERIS_TYPE":0,"CLASSIFICATION_TYPE":"U","NORAD_CAT_ID":64058,"ELEMENT_SET_NO":999,"REV_AT_EPOCH":4123,"BSTAR":0.00015431,"MEAN_MOTION_DOT":9.7e-7,"MEAN_MOTION_DDOT":0},{"OBJECT_NAME":"COSMOS 249 DEB","OBJECT_ID":"1968-091AV","EPOCH":"2026-03-09T05:44:13.151040","MEAN_MOTION":12.82335177,"ECCENTRICITY":0.07795931,"INCLINATION":62.2634,"RA_OF_ASC_NODE":6.1174,"ARG_OF_PERICENTER":83.4618,"MEAN_ANOMALY":285.4433,"EPHEMERIS_TYPE":0,"CLASSIFICATION_TYPE":"U","NORAD_CAT_ID":3758,"ELEMENT_SET_NO":999,"REV_AT_EPOCH":60107,"BSTAR":0.0026277027,"MEAN_MOTION_DOT":2.23e-5,"MEAN_MOTION_DDOT":0}]
